{
    "links": {
        "self": "http://www.neowsapp.com/rest/v1/neo/3625130?api_key=iIulBulltgU6a56xZRHN4H3l9WmuAYTsLGpBGhQ2"
    },
    "id": "3625130",
    "neo_reference_id": "3625130",
    "name": "(2013 BT45)",
    "designation": "2013 BT45",
    "nasa_jpl_url": "http://ssd.jpl.nasa.gov/sbdb.cgi?sstr=3625130",
    "absolute_magnitude_h": 23.1,
    "estimated_diameter": {
        "kilometers": {
            "estimated_diameter_min": 0.063760979,
            "estimated_diameter_max": 0.1425738833
        },
        "meters": {
            "estimated_diameter_min": 63.7609789875,
            "estimated_diameter_max": 142.5738833281
        },
        "miles": {
            "estimated_diameter_min": 0.0396192233,
            "estimated_diameter_max": 0.0885912765
        },
        "feet": {
            "estimated_diameter_min": 209.1895703015,
            "estimated_diameter_max": 467.7620993781
        }
    },
    "is_potentially_hazardous_asteroid": false,
    "close_approach_data": [
        {
            "close_approach_date": "2008-09-04",
            "close_approach_date_full": "2008-Sep-04 03:09",
            "epoch_date_close_approach": 1220497740000,
            "relative_velocity": {
                "kilometers_per_second": "26.2840894907",
                "kilometers_per_hour": "94622.7221663666",
                "miles_per_hour": "58794.8797816515"
            },
            "miss_distance": {
                "astronomical": "0.4155646756",
                "lunar": "161.6546588084",
                "kilometers": "62167590.317000972",
                "miles": "38629149.3655265336"
            },
            "orbiting_body": "Earth"
        },
        {
            "close_approach_date": "2013-01-30",
            "close_approach_date_full": "2013-Jan-30 09:42",
            "epoch_date_close_approach": 1359538920000,
            "relative_velocity": {
                "kilometers_per_second": "15.8550492344",
                "kilometers_per_hour": "57078.177243745",
                "miles_per_hour": "35466.1596323703"
            },
            "miss_distance": {
                "astronomical": "0.0868779023",
                "lunar": "33.7955039947",
                "kilometers": "12996749.134148101",
                "miles": "8075805.4318857538"
            },
            "orbiting_body": "Earth"
        },
        {
            "close_approach_date": "2014-08-02",
            "close_approach_date_full": "2014-Aug-02 16:35",
            "epoch_date_close_approach": 1406997300000,
            "relative_velocity": {
                "kilometers_per_second": "15.804958646",
                "kilometers_per_hour": "56897.8511256544",
                "miles_per_hour": "35354.1119952712"
            },
            "miss_distance": {
                "astronomical": "0.1688351186",
                "lunar": "65.6768611354",
                "kilometers": "25257374.123757382",
                "miles": "15694204.5305685916"
            },
            "orbiting_body": "Earth"
        },
        {
            "close_approach_date": "2019-01-14",
            "close_approach_date_full": "2019-Jan-14 19:51",
            "epoch_date_close_approach": 1547495460000,
            "relative_velocity": {
                "kilometers_per_second": "28.6370464843",
                "kilometers_per_hour": "103093.3673433112",
                "miles_per_hour": "64058.2092806258"
            },
            "miss_distance": {
                "astronomical": "0.4620566575",
                "lunar": "179.7400397675",
                "kilometers": "69122691.781319525",
                "miles": "42950849.015578445"
            },
            "orbiting_body": "Earth"
        },
        {
            "close_approach_date": "2019-04-08",
            "close_approach_date_full": "2019-Apr-08 23:26",
            "epoch_date_close_approach": 1554765960000,
            "relative_velocity": {
                "kilometers_per_second": "21.7772690109",
                "kilometers_per_hour": "78398.1684391262",
                "miles_per_hour": "48713.5730504115"
            },
            "miss_distance": {
                "astronomical": "0.1201812374",
                "lunar": "46.7505013486",
                "kilometers": "17978857.129004338",
                "miles": "11171543.7885943444"
            },
            "orbiting_body": "Venus"
        }
    ],
    "orbital_data": {
        "orbit_id": "9",
        "orbit_determination_date": "2017-04-06 08:47:00",
        "first_observation_date": "2013-01-21",
        "last_observation_date": "2013-02-07",
        "data_arc_in_days": 17,
        "observations_used": 27,
        "orbit_uncertainty": "8",
        "minimum_orbit_intersection": ".081117",
        "jupiter_tisserand_invariant": "5.438",
        "epoch_osculation": "2456317.5",
        "eccentricity": ".3988683713934493",
        "semi_major_axis": "1.119206441372033",
        "inclination": "22.02450004255281",
        "ascending_node_longitude": "300.93627751",
        "orbital_period": "432.4777096115865",
        "perihelion_distance": ".672790390848912",
        "perihelion_argument": "292.8568874738298",
        "aphelion_distance": "1.565622491895154",
        "perihelion_time": "2456392.381206847923",
        "mean_anomaly": "297.6679216844195",
        "mean_motion": ".8324128434811598",
        "equinox": "J2000",
        "orbit_class": {
            "orbit_class_type": "APO",
            "orbit_class_description": "Near-Earth asteroid orbits which cross the Earth’s orbit similar to that of 1862 Apollo",
            "orbit_class_range": "a (semi-major axis) > 1.0 AU; q (perihelion) < 1.017 AU"
        }
    },
    "is_sentry_object": false
}